ONEWEB-0136             
1 47282U 20100AA  25039.86084510 -.00000264  00000+0 -76832-3 0  9999
2 47282  87.8830  88.8585 0002424  97.7904 262.3500 13.12444353199950
ONEWEB-0137             
1 47283U 20100AB  25039.89491407  .00000399  00000+0  10724-2 0  9994
2 47283  87.8825  88.8657 0001848  92.6691 267.4649 13.12443359199866
ONEWEB-0138             
1 47284U 20100AC  25039.87382649  .00000163  00000+0  41880-3 0  9997
2 47284  87.8826  88.8818 0002018  98.1210 262.0148 13.12444791199940
ONEWEB-0139             
1 47285U 20100AD  25039.83666519 -.00000118  00000+0 -36452-3 0  9996
2 47285  87.8831  88.8723 0001918  97.9049 262.2297 13.12442530200014
ONEWEB-0140             
1 47286U 20100AE  25039.86734492 -.00000068  00000+0 -22487-3 0  9993
2 47286  87.8826  88.8594 0002045  98.4162 261.7198 13.12442648199986
ONEWEB-0141             
1 47287U 20100AF  25039.83637103 -.00000104  00000+0 -32344-3 0  9996
2 47287  87.8826  88.8809 0001755  94.4880 265.6449 13.12444159199965
ONEWEB-0142             
1 47288U 20100AG  25039.88113454  .00000370  00000+0  99436-3 0  9998
2 47288  87.8826  88.8526 0001997  90.6874 269.4483 13.12441869199966
ONEWEB-0143             
1 47289U 20100AH  25039.83489253 -.00000061  00000+0 -20386-3 0  9994
2 47289  87.8828  88.8850 0001899  97.9264 262.2080 13.12440842199934
